ONEWEB-0716             
1 55177U 23004AP  25330.14370388 -.00000003  00000+0 -39667-4 0  9990
2 55177  87.9129  46.2477 0002050 104.6105 255.5254 13.17647703140841
ONEWEB-0717             
1 55178U 23004AQ  25330.12682979  .00000005  00000+0 -21550-4 0  9994
2 55178  87.9134  46.2208 0001075 108.1732 251.9516 13.17647319140890
ONEWEB-0719             
1 55179U 23004AR  25330.13695522  .00000114  00000+0  26032-3 0  9993
2 55179  87.9136  46.2010 0001963 108.6771 251.4573 13.17648944140846
ONEWEB-0530             
1 55796U 23029A   25329.98650228 -.00000016  00000+0 -71849-4 0  9990
2 55796  87.9184 315.0094 0001400  97.3326 262.7966 13.20772986134324
ONEWEB-0534             
1 55797U 23029B   25329.97387908 -.00000009  00000+0 -52857-4 0  9992
2 55797  87.9180 315.0125 0001931  89.0154 271.1201 13.20772595134324
ONEWEB-0556             
1 55798U 23029C   25329.98018706  .00000075  00000+0  15263-3 0  9991
2 55798  87.9183 315.0107 0002309 110.7659 249.3722 13.20770799134329
ONEWEB-0562             
1 55799U 23029D   25330.19482522  .00000052  00000+0  95200-4 0  9993
2 55799  87.9181 314.9510 0001533 116.4739 243.6552 13.20770043134357
ONEWEB-0563             
1 55800U 23029E   25330.18852324 -.00000040  00000+0 -12949-3 0  9993
2 55800  87.9188 314.9786 0002096  91.0643 269.0730 13.20772548134340
